DUCHIFAT-3              
1 44854U 19089C   24310.08841530  .00053969  00000+0  20725-2 0  9990
2 44854  36.9533 268.7156 0011446 217.1202 142.8757 15.25399655269654
ANGELS                  
1 44876U 19092D   24309.61200399  .00022346  00000+0  74491-3 0  9992
2 44876  97.4673 138.7039 0008765 174.2909 185.8433 15.31068492270815
TIANQIN 1 (CAS-6)       
1 44879U 19093A   24310.12875152  .00011822  00000+0  12411-2 0  9999
2 44879  97.8267  27.8918 0012200 204.8869 155.1761 14.89589717264153
ETRSS-1                 
1 44880U 19093B   24310.15813311  .00013169  00000+0  13761-2 0  9998
2 44880  97.8269  28.0984 0012463 206.3680 153.6904 14.89747720264154
TIANYAN 01              
1 44881U 19093C   24310.15463562  .00004791  00000+0  57257-3 0  9998
2 44881  97.8164  24.1989 0013267 217.0745 142.9554 14.84596805263955
TIANYAN 02              
1 44882U 19093D   24310.12851655  .00020160  00000+0  18965-2 0  9990
2 44882  97.8370  31.6118 0012448 199.5118 160.5627 14.93850186264302
CBERS 4A                
1 44883U 19093E   24310.18026980  .00005056  00000+0  65071-3 0  9990
2 44883  97.8182  22.9666 0000400 214.5080 145.6107 14.81530515263861
WEILAI 1R               
1 44884U 19093F   24310.16951729  .00016385  00000+0  16092-2 0  9992
2 44884  97.8272  30.1126 0010856 203.8440 156.2277 14.92201219264305
FLORIPASAT-1            
1 44885U 19093G   24310.15074055  .00018395  00000+0  17378-2 0  9991
2 44885  97.8323  31.8829 0011348 205.0383 155.0288 14.93712709264387
SHUNTIAN                
1 44886U 19093H   24310.13056439  .00010954  00000+0  11429-2 0  9990
2 44886  97.8378  31.2071 0012465 215.8594 144.1788 14.89859172264290
2019-093L               
1 44889U 19093L   24310.12117950  .00011814  00000+0  12654-2 0  9995
2 44889  97.8121  24.6121 0012970 201.1868 158.8814 14.88771597263940
ELEKTRO-L 3             
1 44903U 19095A   24310.08524885 -.00000079  00000+0  00000+0 0  9999
2 44903   0.0648  57.7735 0001495 198.2496 255.5621  1.00271860 17786
GONETS-M 14             
1 44905U 19096A   24309.88973355  .00000050  00000+0  29068-3 0  9995
2 44905  82.5203  89.9730 0013274   2.3260 357.7879 12.42880513220475
GONETS-M 15             
1 44906U 19096B   24310.15691897  .00000067  00000+0  40851-3 0  9997
2 44906  82.5224  90.1677 0015477  23.8170 336.3623 12.42883007220503
GONETS-M 16             
1 44907U 19096C   24310.10217906  .00000050  00000+0  28824-3 0  9996
2 44907  82.5170  89.4168 0011960  65.2844 294.9479 12.42884502220500
RS-44 & BREEZE-KM R/B   
1 44909U 19096E   24309.68175289  .00000042  00000+0  11704-3 0  9996
2 44909  82.5254  11.4148 0218497  82.7982 279.7902 12.79735704226944
JILIN-1 KUANFU 01       
1 45016U 20003A   24310.17892114  .00015266  00000+0  82656-3 0  9993
2 45016  97.5664  22.0476 0011926   2.2519 357.8764 15.14661781266389
XINGYUN-2 01            
1 45602U 20028A   24310.10283162  .00008121  00000+0  54171-3 0  9994
2 45602  97.4580 306.2129 0011900  72.3508 287.9019 15.07247052245955
XINGYUN-2 02            
1 45603U 20028B   24310.09340838  .00008167  00000+0  54423-3 0  9997
2 45603  97.5145 316.9681 0013374 128.2892 231.9541 15.07268920245955
HAIYANG-1D              
1 45721U 20036A   24310.06862163  .00001229  00000+0  45497-3 0  9997
2 45721  98.6039 249.7299 0003035  49.6385 310.5064 14.34122978230537
M2 PATHFINDER           
1 45727U 20037E   24309.45810122  .00013183  00000+0  10833-2 0  9990
2 45727  97.7838 125.4086 0012393  22.7688 337.4082 14.99232901236947
GAOFEN DUOMO (GFDM)     
1 45856U 20042A   24310.15589305  .00004289  00000+0  61848-3 0  9994
2 45856  97.8533  17.6790 0012936 179.9936 180.1276 14.76739341234076
ZINYUAN-3               
1 45939U 20051A   24310.12707400  .00017744  00000+0  78747-3 0  9997
2 45939  97.3521  23.2692 0008032 254.2170 105.8181 15.21600413237792
TIANTUO 5               
1 46234U 20058C   24310.14100520  .00080350  00000+0  12618-2 0  9992
2 46234  97.2777   8.7922 0007726 218.7993 141.2707 15.53349604234550
TYVAK-0172              
1 46267U 20059C   24309.54102061  .00054648  00000+0  29939-2 0  9998
2 46267  97.8035 154.6693 0001389 147.8555 212.2761 15.13997240227912
ION-MK01                
1 46274U 20061C   24309.92484298  .00040937  00000+0  11166-2 0  9995
2 46274  97.2804  11.8972 0002680 319.0873  41.0170 15.37330433231540
UPMSAT-2                
1 46276U 20061E   24310.17133041  .00051340  00000+0  11455-2 0  9994
2 46276  97.2782  15.4178 0001177  41.9396 318.1942 15.43395142231849
NEMO-HD                 
1 46277U 20061F   24310.13249352  .00021441  00000+0  73509-3 0  9992
2 46277  97.2788   9.7562 0002130  47.2508 312.8912 15.30198035231467
DIDO 3                  
1 46284U 20061N   24310.17042234  .00103081  00000+0  18508-2 0  9992
2 46284  97.3279  16.4219 0002300  70.5348 289.6151 15.49517672231137
FLOCK 4V-14             
1 46286U 20061Q   24310.12603232  .00693256  00000+0  33477-2 0  9990
2 46286  97.3321  27.4916 0002798 322.0540  38.0530 15.80769536231863
AMICALSAT               
1 46287U 20061R   24309.89744165  .00214776  00000+0  24810-2 0  9991
2 46287  97.3272  18.8531 0000529  49.7112 310.4192 15.61182001231309
3CAT-5A                 
1 46292U 20061W   24309.88871029  .00026625  00000+0  10229-2 0  9999
2 46292  97.3296   7.7605 0004180  80.0654 280.1057 15.26403499230553
3CAT-5B                 
1 46293U 20061X   24309.73531098  .00027893  00000+0  10676-2 0  9997
2 46293  97.3304   7.9571 0004050  79.5496 280.6199 15.26518942230520
OSM-1 CICERO            
1 46294U 20061Y   24309.93103202  .00060563  00000+0  14187-2 0  9994
2 46294  97.3337  15.4174 0003029  63.9459 296.2100 15.41889159231053
FLOCK 4V-13             
1 46297U 20061AB  24310.16654519  .00555292  00000+0  34808-2 0  9996
2 46297  97.3272  26.9992 0004310 293.7551  66.3262 15.75231776231776
KEPLER-2 (TARS)         
1 46319U 20061AZ  24310.17159143  .00356558  00000+0  22008-2 0  9998
2 46319  97.3241  23.6212 0005435 240.9219 119.1503 15.76127768231636
NAPA-1                  
1 46320U 20061BA  24310.12643936  .00038336  00000+0  13684-2 0  9994
2 46320  97.3354  10.9807 0001937  41.1858 318.9528 15.28760079230781
JILIN-1 GAOFEN 3B       
1 46454U 20065A   24310.09919679  .00044645  00000+0  13169-2 0  9990
2 46454  97.3197 353.1140 0010559  77.6661 282.5764 15.34808829228971
JILIN-1 GAOFEN 3E       
1 46457U 20065D   24310.15033195  .00044852  00000+0  13407-2 0  9995
2 46457  97.3211 353.2040 0009517  94.6504 265.5826 15.34397764228979
JILIN-1 GAOFEN 3F       
1 46458U 20065E   24310.12231534  .00041387  00000+0  12370-2 0  9998
2 46458  97.3146 351.8769 0009926  85.3602 274.8774 15.34415732228970
JILIN-1 GAOFEN 3G       
1 46459U 20065F   24310.15039034  .00045112  00000+0  13375-2 0  9999
2 46459  97.3258 354.4290 0010400  89.6784 270.5650 15.34646354228983
JILIN-1 GAOFEN 3H       
1 46460U 20065G   24310.10892003  .00041219  00000+0  12486-2 0  9995
2 46460  97.3157 352.0039 0010006  87.8447 272.3942 15.33991921228960
JILIN-1 GAOFEN 3J       
1 46462U 20065J   24310.11498261  .00044124  00000+0  13009-2 0  9996
2 46462  97.3195 353.1880 0009662  85.6279 274.6069 15.34835803228989
HAIYANG-2C              
1 46469U 20066A   24310.10800164  .00000243  00000+0  29460-3 0  9995
2 46469  65.9963 241.9592 0004904 250.7065 109.3473 13.83378661208309
HJ-2A                   
1 46478U 20067A   24310.13099448  .00004132  00000+0  59884-3 0  9998
2 46478  97.9322  29.7145 0003288  28.0531 332.0855 14.76598081221337
HJ-2B                   
1 46479U 20067B   24310.16673978  .00004317  00000+0  62552-3 0  9999
2 46479  97.9367  30.3860 0002657 106.3947 253.7555 14.76581279221347
GONETS-M 17             
1 46486U 20068A   24310.12727245  .00000041  00000+0  22574-3 0  9991
2 46486  82.5005 353.9445 0022044 237.7281 122.1662 12.42880632186163
GONETS-M 18             
1 46487U 20068B   24310.09284759  .00000035  00000+0  18079-3 0  9994
2 46487  82.4959 353.3095 0019285 234.0297 125.8994 12.42870568186161
GONETS-M 19             
1 46488U 20068C   24309.90622472  .00000077  00000+0  48271-3 0  9994
2 46488  82.4984 353.7527 0012856 249.2576 110.7126 12.42895287186041
MEZNSAT                 
1 46489U 20068D   24310.18625743  .00087268  00000+0  21014-2 0  9993
2 46489  97.8229 283.8888 0011423 136.2852 223.9300 15.40877326226364
YARILO 1                
1 46490U 20068E   24310.12784873  .00095712  00000+0  18113-2 0  9998
2 46490  97.8238 285.9672 0011101 128.9431 231.2809 15.47973286226482
YARILO 2                
1 46491U 20068F   24310.07340948  .00143529  00000+0  24595-2 0  9995
2 46491  97.8154 285.7076 0011799 128.3323 231.8990 15.50621892226465
LACUNASAT-3             
1 46492U 20068G   24310.13748901  .00147062  00000+0  22919-2 0  9998
2 46492  97.8169 287.2185 0011549 123.8441 236.3912 15.53272845226551
DEKART                  
1 46493U 20068H   24310.07804560  .00023483  00000+0  10953-2 0  9991
2 46493  97.8345 275.1965 0013142 179.7167 180.4076 15.19788453225756
NORBI                   
1 46494U 20068J   24310.16031140  .00028700  00000+0  12353-2 0  9991
2 46494  97.8346 276.6403 0012273 173.5047 186.6349 15.22509806225853
SALSAT                  
1 46495U 20068K   24309.84678115  .00021071  00000+0  10650-2 0  9996
2 46495  97.8357 273.1538 0012504 181.0326 179.0883 15.17021821225600
ICEYE-X6                
1 46497U 20068M   24310.17161541  .00014214  00000+0  11197-2 0  9994
2 46497  97.9921 269.7669 0002839 293.9936  66.0989 15.00899321224810
NETSAT-4                
1 46504U 20068U   24309.85663774  .00033468  00000+0  15199-2 0  9999
2 46504  97.8227 271.4004 0006686 224.8227 135.2467 15.20687692225505
NETSAT-3                
1 46505U 20068V   24310.15961562  .00029112  00000+0  13474-2 0  9996
2 46505  97.8215 271.0453 0005848 236.4400 123.6276 15.20070131225534
